[{"OBJECT_NAME":"FALCONSAT-6","OBJECT_ID":"2018-099BK","EPOCH":"2026-03-09T17:24:38.352096","MEAN_MOTION":15.26532865,"ECCENTRICITY":0.00143698,"INCLINATION":97.3865,"RA_OF_ASC_NODE":145.8165,"ARG_OF_PERICENTER":297.0944,"MEAN_ANOMALY":181.0714,"EPHEMERIS_TYPE":0,"CLASSIFICATION_TYPE":"U","NORAD_CAT_ID":43815,"ELEMENT_SET_NO":999,"REV_AT_EPOCH":39855,"BSTAR":0.00019476898,"MEAN_MOTION_DOT":5.029e-5,"MEAN_MOTION_DDOT":0},{"OBJECT_NAME":"STARLINK-32269","OBJECT_ID":"2024-138Y","EPOCH":"2026-03-09T22:11:43.094976","MEAN_MOTION":15.30184464,"ECCENTRICITY":0.00011838,"INCLINATION":53.1623,"RA_OF_ASC_NODE":308.5035,"ARG_OF_PERICENTER":95.9434,"MEAN_ANOMALY":264.1701,"EPHEMERIS_TYPE":0,"CLASSIFICATION_TYPE":"U","NORAD_CAT_ID":60377,"ELEMENT_SET_NO":999,"REV_AT_EPOCH":9066,"BSTAR":4.8955391e-5,"MEAN_MOTION_DOT":1.09e-5,"MEAN_MOTION_DDOT":0}]
